{
    "links": {
        "self": "http://www.neowsapp.com/rest/v1/neo/3726810?api_key=iIulBulltgU6a56xZRHN4H3l9WmuAYTsLGpBGhQ2"
    },
    "id": "3726810",
    "neo_reference_id": "3726810",
    "name": "(2015 RR2)",
    "designation": "2015 RR2",
    "nasa_jpl_url": "http://ssd.jpl.nasa.gov/sbdb.cgi?sstr=3726810",
    "absolute_magnitude_h": 22.6,
    "estimated_diameter": {
        "kilometers": {
            "estimated_diameter_min": 0.0802703167,
            "estimated_diameter_max": 0.1794898848
        },
        "meters": {
            "estimated_diameter_min": 80.2703167283,
            "estimated_diameter_max": 179.4898847799
        },
        "miles": {
            "estimated_diameter_min": 0.049877647,
            "estimated_diameter_max": 0.1115298092
        },
        "feet": {
            "estimated_diameter_min": 263.3540659348,
            "estimated_diameter_max": 588.8775935812
        }
    },
    "is_potentially_hazardous_asteroid": false,
    "close_approach_data": [
        {
            "close_approach_date": "2015-08-26",
            "close_approach_date_full": "2015-Aug-26 14:03",
            "epoch_date_close_approach": 1440597780000,
            "relative_velocity": {
                "kilometers_per_second": "9.7898642346",
                "kilometers_per_hour": "35243.5112446244",
                "miles_per_hour": "21898.9473064168"
            },
            "miss_distance": {
                "astronomical": "0.1512338992",
                "lunar": "58.8299867888",
                "kilometers": "22624269.192114704",
                "miles": "14058068.9946587552"
            },
            "orbiting_body": "Earth"
        }
    ],
    "orbital_data": {
        "orbit_id": "8",
        "orbit_determination_date": "2017-04-06 08:32:10",
        "first_observation_date": "2015-09-08",
        "last_observation_date": "2015-10-11",
        "data_arc_in_days": 33,
        "observations_used": 28,
        "orbit_uncertainty": "7",
        "minimum_orbit_intersection": ".143766",
        "jupiter_tisserand_invariant": "3.134",
        "epoch_osculation": "2459000.5",
        "eccentricity": ".5579293431612663",
        "semi_major_axis": "2.602224197219058",
        "inclination": "14.96210727928003",
        "ascending_node_longitude": "160.0482707559439",
        "orbital_period": "1533.258896298557",
        "perihelion_distance": "1.150366960106275",
        "perihelion_argument": "171.323650922523",
        "aphelion_distance": "4.05408143433184",
        "perihelion_time": "2458788.266346816180",
        "mean_anomaly": "49.83118984707834",
        "mean_motion": ".2347940069802149",
        "equinox": "J2000",
        "orbit_class": {
            "orbit_class_type": "AMO",
            "orbit_class_description": "Near-Earth asteroid orbits similar to that of 1221 Amor",
            "orbit_class_range": "1.017 AU < q (perihelion) < 1.3 AU"
        }
    },
    "is_sentry_object": false
}